COSMOS 1408 DEB         
1 50032U 82092RU  26203.00825533  .00004241  00000+0  80079-4 0  9998
2 50032  82.5619 191.2785 0016838 124.6786 235.6054 15.47943238260241
COSMOS 1408 DEB         
1 50058U 82092SW  26202.99893263  .00081664  00000+0  33219-3 0  9995
2 50058  82.6062 194.2703 0005328   7.7813 352.3539 15.85918133262840
COSMOS 1408 DEB         
1 50621U 82092ALR 26202.41299275  .00035922  00000+0  27469-3 0  9997
2 50621  82.5636 201.8306 0020461  57.4709 302.8527 15.71685669256993
